STARLINK-2740           
1 48690U 21044BE  26068.39465036  .00000738  00000+0  37045-4 0  9996
2 48690  53.1612  76.6888 0001278  99.2058 260.9087 15.30199466264313
SKYKRAFT-1A             
1 55054U 23001AX  26068.71064616  .00008177  00000+0  30069-3 0  9991
2 55054  97.3349 127.6290 0011277 121.5092 238.7251 15.28083228176529
